STARLINK-37215
1 68392U 26063N   26092.75002314 -.01794076  96526-3 -36570-2 0  9996
2 68392  97.2820 233.5510 0001488  81.0804  89.0356 15.99590160  2322
